CORRECTED ACCELEROGRAM   47379-S2602-89291.01       CHAN  3:   0 DEG     FROM
UNCORRECTED ACCELEROGRAM DATA              PROCESSED:  1/31/90, CDMG QL89A379
SANTA CRUZ MTNS (LOMA PRIETA) EARTHQUAKE
OCTOBER 17, 1989  17:04 PDT             (ORIGIN(USGS): 10/18/89, 00:04:02.2 GMT)
47379-S2602-89291.01               TRIGGER TIME: 10/18/89, 00:04:23.9 GMT
STATION NO. 47379   36.973N, 121.572W     SMA-1  S/N 2602
GILROY #1 - GAVILAN COLLEGE, WATER TANK
CHAN  3:   0 DEG
SANTA CRUZ MTNS (LOMA PRIETA) EARTHQUAKE    OCTOBER 17, 1989  17:04 PDT
HYPOCENTER(USGS): 37.037N, 121.883W, H=18KM.     ML=7.0(BRK).  MS=7.1(NEIS)
INSTR PERIOD =  .0383 SEC,  DAMPING =  .570,  SENSITIVITY = 1.80 CM/G.
                        RECORD LENGTH = 39.980 SEC.
                                     UNCOR MAX  =   .426 G, AT   3.407 SEC.
RMS ACCEL OF (UNCOR) RECORD  =  .042 G.
ACCELEROGRAM BANDPASS FILTERED WITH RAMPS AT  .080- .160 AND 23.00-25.00 CYC/SEC
  2000 POINTS OF INSTRUMENT- AND BASELINE-CORRECTED ACCEL, VELOC AND DISPL DATA
AT EQUALLY-SPACED INTERVALS OF    .020  SEC.
PEAK ACCELERATION =   0.43487    G  AT    3.400   SEC.
SANTA CRUZ MTNS (LOMA PRIETA) EARTHQUAKE    OCTOBER 17, 1989  17:04 PDT
ACCEL UNITS CONVERTED TO G TO BE READY FOR IMPORTING TO DEEPSOIL (AB, 10/12/2016)
2000 POINTS OF ACCEL DATA EQUALLY SPACED AT 0.02 SEC.  (UNITS: G)
 0            -0.015981651 
 0.02         -0.0040295617 
 0.04          0.0055616718 
 0.06         -0.0039745158 
 0.08         -0.0068756371 
 0.1           0.0096778797 
 0.12         -0.0014118247 
 0.14         -0.010004077 
 0.16         -0.00019673802 
 0.18          0.0032150866 
 0.2          -0.003745158 
 0.22         -0.0058746177 
 0.24          0.0075443425 
 0.26         -0.0050336391 
 0.28         -0.020530071 
 0.3           0.0035117227 
 0.32          0.011906218 
 0.34         -0.016204893 
 0.36          0.0028287462 
 0.38          0.0056513761 
 0.4          -0.0083893986 
 0.42         -0.017508665 
 0.44         -0.003950051 
 0.46         -0.0050723751 
 0.48         -0.0088634047 
 0.5           0.016101937 
 0.52          0.0038929664 
 0.54         -0.020719674 
 0.56         -0.015856269 
 0.58         -0.0058165138 
 0.6          -0.00033333333 
 0.62          0.0052762487 
 0.64         -0.010138634 
 0.66         -0.010262997 
 0.68         -0.010844037 
 0.7          -0.0039429154 
 0.72          0.030236493 
 0.74         -0.0022018349 
 0.76         -0.013598369 
 0.78         -0.0039938838 
 0.8          -0.023410805 
 0.82          0.00031702345 
 0.84          0.00025688073 
 0.86          0.014704383 
 0.88          0.01320999 
 0.9          -0.023961264 
 0.92         -0.016349643 
 0.94          0.015778797 
 0.96         -0.012410805 
 0.98         -0.0055545362 
 1             0.019603466 
 1.02         -0.038011213 
 1.04         -0.015821611 
 1.06          0.042330275 
 1.08         -0.023690112 
 1.1          -0.014358818 
 1.12          0.038374108 
 1.14         -0.026538226 
 1.16         -0.043900102 
 1.18          0.012759429 
 1.2           0.027385321 
 1.22         -0.007019368 
 1.24         -0.01806422 
 1.26         -0.020692151 
 1.28          0.039888889 
 1.3           0.01611213 
 1.32         -0.026038736 
 1.34          0.01606524 
 1.36         -0.046960245 
 1.38         -0.026195719 
 1.4           0.076081549 
 1.42         -0.031978593 
 1.44         -0.091062181 
 1.46          0.025391437 
 1.48         -0.0046238532 
 1.5           0.0089969419 
 1.52          0.068844037 
 1.54          0.0012833843 
 1.56         -0.033523955 
 1.58         -0.043115189 
 1.6          -0.025965341 
 1.62          0.027203874 
 1.64          0.025117227 
 1.66         -0.018151886 
 1.68         -0.05075841 
 1.7          -0.0030723751 
 1.72         -0.0069745158 
 1.74         -0.01349949 
 1.76          0.064735984 
 1.78          0.024309888 
 1.8          -0.086803262 
 1.82          0.033624873 
 1.84          0.055538226 
 1.86         -0.085487258 
 1.88          0.041437309 
 1.9           0.098215087 
 1.92         -0.08256371 
 1.94         -0.10769521 
 1.96          0.022232416 
 1.98          0.011891947 
 2            -0.006116208 
 2.02          0.04050051 
 2.04          0.017865443 
 2.06         -0.009656473 
 2.08          0.038648318 
 2.1          -0.00772579 
 2.12         -0.043936799 
 2.14         -0.031543323 
 2.16          0.034771662 
 2.18          0.066638124 
 2.2          -0.045674822 
 2.22          0.016502548 
 2.24          0.063704383 
 2.26         -0.040273191 
 2.28         -0.075297655 
 2.3           0.012360856 
 2.32         -0.0056197757 
 2.34         -0.058545362 
 2.36          0.033740061 
 2.38          0.069992864 
 2.4          -0.023743119 
 2.42          0.0085616718 
 2.44          0.069447503 
 2.46         -0.024073394 
 2.48         -0.037200815 
 2.5           0.060741081 
 2.52         -0.011590214 
 2.54         -0.053708461 
 2.56          0.015561672 
 2.58         -0.02085525 
 2.6          -0.023529052 
 2.62          0.0677421 
 2.64          0.047027523 
 2.66         -0.011846075 
 2.68          0.057463812 
 2.7           0.074 
 2.72          0.035091743 
 2.74          0.070291539 
 2.76          0.039846075 
 2.78          0.02443629 
 2.8           0.15941488 
 2.82          0.10111519 
 2.84         -0.10894699 
 2.86         -0.066316004 
 2.88          0.05848318 
 2.9          -0.065907238 
 2.92         -0.13378389 
 2.94         -0.043374108 
 2.96         -0.03375841 
 2.98         -0.055801223 
 3             0.025765545 
 3.02          0.10046993 
 3.04          0.069643221 
 3.06          0.073732926 
 3.08          0.18193476 
 3.1           0.24482467 
 3.12          0.20243119 
 3.14          0.20054434 
 3.16          0.25185933 
 3.18          0.20240877 
 3.2           0.16954638 
 3.22          0.033770642 
 3.24         -0.1643527 
 3.26         -0.3006106 
 3.28         -0.36756983 
 3.3          -0.37493986 
 3.32         -0.35192151 
 3.34         -0.3512895 
 3.36         -0.31262895 
 3.38          0.11949745 
 3.4           0.43487156 
 3.42          0.30501121 
 3.44          0.055095821 
 3.46          0.079408767 
 3.48          0.13310092 
 3.5           0.0067308869 
 3.52         -0.059453619 
 3.54         -0.022020387 
 3.56          0.0070397554 
 3.58          0.08240367 
 3.6           0.14997452 
 3.62          0.15511417 
 3.64          0.10211621 
 3.66         -0.0055158002 
 3.68         -0.14263099 
 3.7          -0.26612946 
 3.72         -0.27370133 
 3.74         -0.16514067 
 3.76         -0.0021294597 
 3.78          0.18486137 
 3.8           0.20345464 
 3.82          0.10397961 
 3.84          0.0709684 
 3.86          0.11570438 
 3.88          0.1650316 
 3.9           0.1164475 
 3.92          0.047122324 
 3.94         -0.021749235 
 3.96         -0.11612844 
 3.98         -0.26143221 
 4            -0.30449541 
 4.02         -0.28883996 
 4.04         -0.16427829 
 4.06          0.036963303 
 4.08          0.049530071 
 4.1          -0.030286442 
 4.12         -0.065250765 
 4.14         -0.045134557 
 4.16         -0.029109072 
 4.18         -0.035504587 
 4.2          -0.036972477 
 4.22          0.056510703 
 4.24          0.074812436 
 4.26         -0.010832824 
 4.28         -0.02520999 
 4.3          -0.0090050968 
 4.32          0.051025484 
 4.34          0.14606626 
 4.36          0.085577982 
 4.38         -0.049406728 
 4.4          -0.11559123 
 4.42         -0.041367992 
 4.44          0.079593272 
 4.46          0.062164118 
 4.48          0.0002293578 
 4.5           0.037417941 
 4.52          0.12377982 
 4.54          0.067712538 
 4.56         -0.067299694 
 4.58         -0.13723242 
 4.6          -0.11146075 
 4.62         -0.031847095 
 4.64         -0.019550459 
 4.66         -0.043979613 
 4.68         -0.054268094 
 4.7           0.018950051 
 4.72          0.12492966 
 4.74          0.026009174 
 4.76         -0.12962385 
 4.78         -0.20604485 
 4.8          -0.1080367 
 4.82          0.0017696228 
 4.84         -0.0057431193 
 4.86          0.052569827 
 4.88          0.057717635 
 4.9           0.029545362 
 4.92          0.038775739 
 4.94          0.13229867 
 4.96          0.15990622 
 4.98          0.10450561 
 5             0.033023445 
 5.02         -0.09248318 
 5.04         -0.17315902 
 5.06         -0.16305403 
 5.08          0.0086799185 
 5.1           0.029356779 
 5.12         -0.11293578 
 5.14         -0.1378053 
 5.16          0.044760449 
 5.18          0.12999694 
 5.2          -0.00046381244 
 5.22         -0.064680938 
 5.24         -0.0050897044 
 5.26          0.063426096 
 5.28          0.0297421 
 5.3           0.028721713 
 5.32          0.12648828 
 5.34          0.14085117 
 5.36          0.045876656 
 5.38         -0.042700306 
 5.4          -0.082297655 
 5.42         -0.057698267 
 5.44          0.020655454 
 5.46          0.049817533 
 5.48         -0.032804281 
 5.5          -0.053474006 
 5.52          0.044630989 
 5.54          0.089975535 
 5.56         -0.02219368 
 5.58         -0.1219317 
 5.6          -0.15407645 
 5.62         -0.12377064 
 5.64         -0.074140673 
 5.66         -0.05498369 
 5.68         -0.045562691 
 5.7          -0.036640163 
 5.72         -0.0071151886 
 5.74          0.036496432 
 5.76          0.13096942 
 5.78          0.17758716 
 5.8           0.15584506 
 5.82          0.10462181 
 5.84          0.022653415 
 5.86         -0.038985729 
 5.88         -0.082775739 
 5.9          -0.051071356 
 5.92         -0.020840979 
 5.94         -0.046001019 
 5.96         -0.083150866 
 5.98         -0.066487258 
 6            -0.017954128 
 6.02          0.028001019 
 6.04          0.043200815 
 6.06          0.012659531 
 6.08          0.01043629 
 6.1           0.022151886 
 6.12          0.034002039 
 6.14          0.059686035 
 6.16          0.060036697 
 6.18         -0.0043353721 
 6.2          -0.01795209 
 6.22          0.011255861 
 6.24         -0.0010642202 
 6.26         -0.0047023445 
 6.28          0.0165158 
 6.3           0.0027808359 
 6.32         -0.012313965 
 6.34          0.018857288 
 6.36          0.034993884 
 6.38          0.06620999 
 6.4           0.081965341 
 6.42          0.050309888 
 6.44         -0.0080601427 
 6.46         -0.037771662 
 6.48         -0.033651376 
 6.5          -0.044576962 
 6.52         -0.046296636 
 6.54         -0.033662589 
 6.56         -0.019229358 
 6.58         -0.031176351 
 6.6          -0.048411825 
 6.62         -0.030355759 
 6.64         -0.013319062 
 6.66         -0.0079979613 
 6.68          0.01338736 
 6.7           0.035598369 
 6.72          0.0050326198 
 6.74         -0.0068970438 
 6.76          0.025762487 
 6.78          0.007783894 
 6.8          -0.019471967 
 6.82         -0.0085769623 
 6.84         -0.01585525 
 6.86         -0.0079204893 
 6.88          0.041509684 
 6.9           0.062481142 
 6.92          0.021543323 
 6.94         -0.0031121305 
 6.96          0.021189602 
 6.98          0.013904179 
 7             0.010132518 
 7.02          0.049889908 
 7.04          0.068344546 
 7.06          0.049544343 
 7.08          0.024929664 
 7.1           0.0005606524 
 7.12         -0.0098022426 
 7.14         -0.0051926606 
 7.16          0.004146789 
 7.18         -0.0014485219 
 7.2          -0.014231397 
 7.22         -0.044248726 
 7.24         -0.069800204 
 7.26         -0.045248726 
 7.28          0.0017930683 
 7.3          -0.010685015 
 7.32         -0.043972477 
 7.34         -0.030566769 
 7.36         -0.029288481 
 7.38          0.020876656 
 7.4           0.052626911 
 7.42         -0.0030316004 
 7.44         -0.068875637 
 7.46         -0.06019368 
 7.48         -0.0014393476 
 7.5           0.010012232 
 7.52         -0.03585423 
 7.54         -0.10139755 
 7.56         -0.088291539 
 7.58          0.031049949 
 7.6           0.12305505 
 7.62          0.10014169 
 7.64          0.065344546 
 7.66          0.10010805 
 7.68          0.092866463 
 7.7          -0.013717635 
 7.72         -0.055400612 
 7.74          0.0030050968 
 7.76         -0.011641182 
 7.78         -0.055882773 
 7.8          -0.0046534149 
 7.82          0.0075035678 
 7.84         -0.037556575 
 7.86         -0.037750255 
 7.88         -0.019266055 
 7.9           0.0070489297 
 7.92          0.061023445 
 7.94          0.076695209 
 7.96         -0.0019276249 
 7.98         -0.025868502 
 8             0.018202854 
 8.02          0.029252803 
 8.04          0.055114169 
 8.06          0.053876656 
 8.08         -0.0093649337 
 8.1          -0.054680938 
 8.12         -0.019094801 
 8.14          0.0027125382 
 8.16         -0.036770642 
 8.18         -0.054636086 
 8.2          -0.033862385 
 8.22          0.013945973 
 8.24         -0.0074454638 
 8.26         -0.056141692 
 8.28         -0.020683996 
 8.3           0.056932722 
 8.32          0.050039755 
 8.34          0.00080020387 
 8.36          0.032689093 
 8.38          0.057720693 
 8.4           0.0037716616 
 8.42         -0.055920489 
 8.44         -0.048836901 
 8.46         -0.0096687054 
 8.48         -0.0092018349 
 8.5          -0.037154944 
 8.52         -0.013390418 
 8.54         -0.00088786952 
 8.56         -0.0048307849 
 8.58          0.0031997961 
 8.6           0.014160041 
 8.62          0.025272171 
 8.64          0.036289501 
 8.66          0.0494842 
 8.68          0.027861366 
 8.7           0.0050224261 
 8.72          0.025593272 
 8.74          0.061247706 
 8.76          0.038134557 
 8.78         -0.012760449 
 8.8          -0.028576962 
 8.82          0.0051090724 
 8.84          0.049372069 
 8.86          0.036029562 
 8.88         -0.01587054 
 8.9          -0.053201835 
 8.92         -0.057931702 
 8.94         -0.017103976 
 8.96          0.014 
 8.98          0.03382263 
 9             0.042961264 
 9.02          0.030360856 
 9.04          0.013718654 
 9.06          0.014711519 
 9.08          0.0081692151 
 9.1          -0.0066595311 
 9.12          0.012926606 
 9.14          0.031936799 
 9.16          0.014462793 
 9.18          0.0049755352 
 9.2           0.023545362 
 9.22          0.014472987 
 9.24         -0.012985729 
 9.26         -0.021846075 
 9.28         -0.025969419 
 9.3          -0.036171254 
 9.32         -0.041634047 
 9.34         -0.045452599 
 9.36         -0.038485219 
 9.38         -0.021244648 
 9.4          -0.011155963 
 9.42          0.011950051 
 9.44          0.031466871 
 9.46          0.007617737 
 9.48         -0.007069317 
 9.5           0.0022099898 
 9.52          0.0044148828 
 9.54          0.0063017329 
 9.56          0.025376147 
 9.58          0.03308053 
 9.6           0.02253211 
 9.62          0.031262997 
 9.64          0.019927625 
 9.66         -0.021154944 
 9.68         -0.034380224 
 9.7          -0.015570846 
 9.72         -0.0249684 
 9.74         -0.059393476 
 9.76         -0.078268094 
 9.78         -0.050868502 
 9.8          -0.0077533129 
 9.82          0.002567788 
 9.84          0.005293578 
 9.86          0.018248726 
 9.88          0.014410805 
 9.9           0.016053007 
 9.92          0.039533129 
 9.94          0.0074852192 
 9.96         -0.025627931 
 9.98         -0.0026819572 
 10           -0.01088787 
 10.02        -0.047023445 
 10.04        -0.071744139 
 10.06        -0.041302752 
 10.08         0.002204893 
 10.1          0.008324159 
 10.12         0.0044362895 
 10.14        -0.012764526 
 10.16        -0.0065015291 
 10.18         0.019874618 
 10.2          0.0065341488 
 10.22        -0.020576962 
 10.24         0.0055178389 
 10.26         0.0092008155 
 10.28        -0.011163099 
 10.3         -0.0022446483 
 10.32        -0.0091569827 
 10.34        -0.026482161 
 10.36        -0.022873598 
 10.38         0.0083333333 
 10.4          0.03261366 
 10.42         0.028617737 
 10.44         0.0069266055 
 10.46        -0.011211009 
 10.48        -0.034390418 
 10.5         -0.021094801 
 10.52         0.040244648 
 10.54         0.053346585 
 10.56         0.039657492 
 10.58         0.043582059 
 10.6          0.024395515 
 10.62        -0.021965341 
 10.64        -0.059108053 
 10.66        -0.042423038 
 10.68        -0.010808359 
 10.7         -0.0072619776 
 10.72        -0.0050509684 
 10.74         0.016217125 
 10.76         0.053865443 
 10.78         0.058084608 
 10.8          0.031269113 
 10.82         0.0019510703 
 10.84        -0.024726809 
 10.86        -0.012043833 
 10.88         0.018455657 
 10.9         -0.0030091743 
 10.92        -0.015099898 
 10.94         0.0077879715 
 10.96        -0.011004077 
 10.98        -0.039658512 
 11           -0.05317737 
 11.02        -0.037049949 
 11.04         0.01361366 
 11.06         0.035568807 
 11.08         0.015463812 
 11.1          0.016058104 
 11.12         0.043307849 
 11.14         0.043089704 
 11.16         0.021890928 
 11.18        -0.0052181448 
 11.2         -0.019847095 
 11.22        -0.0057726809 
 11.24         0.0022884811 
 11.26        -0.013926606 
 11.28        -0.018908257 
 11.3         -0.018425076 
 11.32        -0.0025698267 
 11.34         0.015755352 
 11.36        -0.0056024465 
 11.38        -0.017278287 
 11.4         -0.0086116208 
 11.42        -0.022893986 
 11.44        -0.02103262 
 11.46         0.024957187 
 11.48         0.032352701 
 11.5         -0.0050152905 
 11.52         0.0059296636 
 11.54         0.034769623 
 11.56         0.020746177 
 11.58        -0.0030295617 
 11.6         -0.014679918 
 11.62        -0.021168196 
 11.64        -0.028720693 
 11.66        -0.022426096 
 11.68        -0.0069643221 
 11.7          0.0089928644 
 11.72         0.019678899 
 11.74         0.019312946 
 11.76         0.018256881 
 11.78         0.004795107 
 11.8         -0.019608563 
 11.82        -0.014324159 
 11.84         0.0018369011 
 11.86        -0.011814475 
 11.88        -0.0096503568 
 11.9          0.0066768603 
 11.92         0.0033312946 
 11.94         0.011766565 
 11.96         0.021982671 
 11.98         0.015393476 
 12            0.011984709 
 12.02         0.010088685 
 12.04         0.0042691131 
 12.06         0.011721713 
 12.08         0.024245668 
 12.1          0.029488277 
 12.12         0.028618756 
 12.14         0.011423038 
 12.16        -0.0054780836 
 12.18        -0.0012069317 
 12.2          0.0094332314 
 12.22        -0.0040285423 
 12.24        -0.016122324 
 12.26         0.0046167176 
 12.28         0.013138634 
 12.3         -0.020562691 
 12.32        -0.040040775 
 12.34        -0.02288685 
 12.36        -0.0025310907 
 12.38         0.015808359 
 12.4          0.01735474 
 12.42         0.010648318 
 12.44         0.020769623 
 12.46         0.02583792 
 12.48         0.0040152905 
 12.5         -0.0086360856 
 12.52        -0.0080948012 
 12.54        -0.028550459 
 12.56        -0.040929664 
 12.58        -0.025817533 
 12.6         -0.015360856 
 12.62         0.00064525994 
 12.64         0.011686035 
 12.66        -0.0020815494 
 12.68         0.0023863405 
 12.7          0.0076656473 
 12.72        -0.0082130479 
 12.74        -0.013075433 
 12.76        -0.0076381244 
 12.78        -0.0010224261 
 12.8         -0.0031294597 
 12.82        -0.013237513 
