CORRECTED ACCELEROGRAM   47380-S2603-89291.04       CHAN  3:   0 DEG     FROM
UNCORRECTED ACCELEROGRAM DATA              PROCESSED: 12/20/89, CDMG QL89A380
SANTA CRUZ MTNS (LOMA PRIETA) EARTHQUAKE
OCTOBER 17, 1989  17:04 PDT             (ORIGIN(USGS): 10/18/89, 00:04:02.2 GMT)
47380-S2603-89291.04               TRIGGER TIME: 10/18/89, 00:04:23.8 GMT
STATION NO. 47380   36.982N, 121.556W     SMA-1  S/N 2603
GILROY #2 - HWY 101/BOLSA RD. MOTEL
CHAN  3:   0 DEG
SANTA CRUZ MTNS (LOMA PRIETA) EARTHQUAKE    OCTOBER 17, 1989  17:04 PDT
HYPOCENTER(USGS): 37.037N, 121.883W, H=18KM.     ML=7.0(BRK).  MS=7.1(NEIS)
INSTR PERIOD =  .0376 SEC,  DAMPING =  .600,  SENSITIVITY = 1.79 CM/G.
                        RECORD LENGTH = 39.980 SEC.
                                     UNCOR MAX  =  -.374 G, AT   4.039 SEC.
RMS ACCEL OF (UNCOR) RECORD  =  .044 G.
ACCELEROGRAM BANDPASS FILTERED WITH RAMPS AT  .080- .160 AND 23.00-25.00 CYC/SEC
  2000 POINTS OF INSTRUMENT- AND BASELINE-CORRECTED ACCEL DATA
AT EQUALLY-SPACED INTERVALS OF    .020  SEC.
PEAK ACCELERATION =  -0.35083    G  AT    4.020   SEC.
SANTA CRUZ MTNS (LOMA PRIETA) EARTHQUAKE    OCTOBER 17, 1989  17:04 PDT
ACCEL UNITS CONVERTED TO G TO BE READY FOR IMPORTING TO DEEPSOIL (AB, 10/12/2016)
2000 POINTS OF ACCEL DATA EQUALLY SPACED AT 0.02 SEC.  (UNITS: G)
 0            -0.0062650357 
 0.02         -0.0012181448 
 0.04          0.00026095821 
 0.06         -0.00041182467 
 0.08          0.00020998981 
 0.1          -0.0035025484 
 0.12         -0.0011610601 
 0.14         -7.1355759E-05 
 0.16         -0.0010652396 
 0.18          0.00071049949 
 0.2          -0.0031365953 
 0.22          0.00050458716 
 0.24         -0.0018735984 
 0.26         -0.0026309888 
 0.28          0.00085219164 
 0.3           0.0011427115 
 0.32         -0.00029357798 
 0.34         -0.001459735 
 0.36         -0.0010682977 
 0.38         -0.0011559633 
 0.4          -0.0028012232 
 0.42         -0.0027971458 
 0.44         -0.0027400612 
 0.46         -0.01014577 
 0.48         -0.0012640163 
 0.5          -0.0029194699 
 0.52         -0.00035066259 
 0.54         -0.00096024465 
 0.56         -0.0073781855 
 0.58         -0.0024862385 
 0.6          -0.0031681957 
 0.62         -0.00046788991 
 0.64          0.0015718654 
 0.66         -0.00096738022 
 0.68         -0.0055861366 
 0.7          -0.0016605505 
 0.72         -0.0075188583 
 0.74          0.0073598369 
 0.76         -0.0016615698 
 0.78         -0.0097217125 
 0.8           0.0059011213 
 0.82         -0.0022986748 
 0.84         -0.0018491335 
 0.86          0.0026625892 
 0.88         -0.0082629969 
 0.9          -0.0058807339 
 0.92          0.015200815 
 0.94         -0.0023771662 
 0.96         -0.013191641 
 0.98         -0.0031529052 
 1            -0.0087584098 
 1.02         -0.00058715596 
 1.04          0.0057196738 
 1.06         -0.01404893 
 1.08         -0.0092283384 
 1.1           0.0060560652 
 1.12         -0.0072609582 
 1.14         -0.0062721713 
 1.16          0.0049398573 
 1.18          0.010001019 
 1.2          -0.004656473 
 1.22          0.0050183486 
 1.24         -0.0044617737 
 1.26         -0.009116208 
 1.28          0.0042528033 
 1.3          -0.00012538226 
 1.32          0.0090764526 
 1.34          0.020755352 
 1.36          0.0027889908 
 1.38         -0.0086381244 
 1.4           0.0020142712 
 1.42         -0.01704791 
 1.44         -0.016686035 
 1.46          0.00051478084 
 1.48         -0.0025107034 
 1.5           0.0010662589 
 1.52         -0.0021325178 
 1.54         -0.02387156 
 1.56         -0.00096432212 
 1.58         -0.015906218 
 1.6           0.00095616718 
 1.62          0.02104893 
 1.64         -0.00023649337 
 1.66         -0.0011590214 
 1.68          0.0083098879 
 1.7           0.011577982 
 1.72         -0.022389399 
 1.74         -0.028719674 
 1.76          0.0016656473 
 1.78          0.010310907 
 1.8           0.024100917 
 1.82         -0.00060652396 
 1.84         -0.0037798165 
 1.86         -0.0027227319 
 1.88         -0.0047084608 
 1.9          -0.018963303 
 1.92         -0.0007675841 
 1.94          0.0040642202 
 1.96         -0.019244648 
 1.98          0.0069041794 
 2            -0.0071039755 
 2.02          0.0022589195 
 2.04          0.020527013 
 2.06          0.025551478 
 2.08          0.0074638124 
 2.1          -0.00083792049 
 2.12         -0.013039755 
 2.14          0.00025586137 
 2.16         -0.029704383 
 2.18         -0.026369011 
 2.2           0.0054077472 
 2.22          0.016614679 
 2.24          0.0015168196 
 2.26         -0.0024301733 
 2.28         -0.0098124363 
 2.3          -0.0037410805 
 2.32          0.018060143 
 2.34          0.0077971458 
 2.36          0.025546381 
 2.38          0.0041335372 
 2.4           0.00482263 
 2.42          0.0094648318 
 2.44          0.00026401631 
 2.46         -0.00091539246 
 2.48         -0.01682263 
 2.5          -0.039853211 
 2.52         -0.014744139 
 2.54         -0.035454638 
 2.56         -0.028582059 
 2.58          0.0072079511 
 2.6           0.0045667686 
 2.62         -0.0028185525 
 2.64         -0.0077084608 
 2.66         -0.0046860347 
 2.68         -0.019135576 
 2.7          -0.0065881753 
 2.72         -0.014536188 
 2.74         -0.0066707441 
 2.76          0.026833843 
 2.78          0.021219164 
 2.8          -0.0042059123 
 2.82         -0.021034659 
 2.84         -0.015084608 
 2.86          0.019069317 
 2.88          0.02224261 
 2.9          -0.0089531091 
 2.92         -0.027868502 
 2.94         -0.0065545362 
 2.96          0.0023751274 
 2.98          0.0022976555 
 3             0.002529052 
 3.02          0.010206932 
 3.04          0.039558614 
 3.06          0.027867482 
 3.08          0.02464526 
 3.1           0.0032150866 
 3.12          0.035022426 
 3.14          0.059948012 
 3.16          0.037198777 
 3.18          0.046993884 
 3.2           0.019055046 
 3.22         -0.00019469929 
 3.24          0.0043231397 
 3.26         -0.00817737 
 3.28         -0.013831804 
 3.3          -0.0075953109 
 3.32          0.02741896 
 3.34          0.062644241 
 3.36          0.075681957 
 3.38          0.069375127 
 3.4           0.033593272 
 3.42          0.065075433 
 3.44          0.11521509 
 3.46          0.11183894 
 3.48          0.12373293 
 3.5           0.1163792 
 3.52          0.084346585 
 3.54          0.05464526 
 3.56          0.053514781 
 3.58          0.051352701 
 3.6           0.027738022 
 3.62         -0.030962283 
 3.64         -0.08895107 
 3.66         -0.047506626 
 3.68         -0.029717635 
 3.7          -0.039362895 
 3.72         -0.025250765 
 3.74          0.0093883792 
 3.76          0.039249745 
 3.78          0.075594292 
 3.8           0.13185831 
 3.82          0.1669633 
 3.84          0.17186137 
 3.86          0.17159837 
 3.88          0.1459735 
 3.9           0.028310907 
 3.92         -0.070195719 
 3.94         -0.10363201 
 3.96         -0.13929867 
 3.98         -0.18356575 
 4            -0.25578593 
 4.02         -0.35083588 
 4.04         -0.35038124 
 4.06         -0.28791131 
 4.08         -0.29336901 
 4.1          -0.1642844 
 4.12         -0.0055412844 
 4.14         -0.016169215 
 4.16         -0.034085627 
 4.18         -0.078938838 
 4.2          -0.082486239 
 4.22         -0.048108053 
 4.24          0.0032844037 
 4.26          0.077459735 
 4.28          0.16966667 
 4.3           0.23567278 
 4.32          0.22035372 
 4.34          0.13682059 
 4.36          0.046991845 
 4.38         -0.057019368 
 4.4          -0.15867686 
 4.42         -0.20676555 
 4.44         -0.24486239 
 4.46         -0.24388991 
 4.48         -0.1766738 
 4.5          -0.010683996 
 4.52          0.092369011 
 4.54          0.13106116 
 4.56          0.15848318 
 4.58          0.14973904 
 4.6           0.14324159 
 4.62          0.16765545 
 4.64          0.20211111 
 4.66          0.22814475 
 4.68          0.24105607 
 4.7           0.18930683 
 4.72          0.047373089 
 4.74         -0.11546993 
 4.76         -0.15973802 
 4.78         -0.17417125 
 4.8          -0.18607747 
 4.82         -0.19975943 
 4.84         -0.19517941 
 4.86         -0.14688787 
 4.88         -0.16274822 
 4.9          -0.15984811 
 4.92         -0.08648318 
 4.94         -0.011663609 
 4.96          0.059440367 
 4.98          0.12256779 
 5             0.17581244 
 5.02          0.2350999 
 5.04          0.27946381 
 5.06          0.25162997 
 5.08          0.17310601 
 5.1           0.10860754 
 5.12          0.032926606 
 5.14         -0.018134557 
 5.16         -0.0070417941 
 5.18          0.020223242 
 5.2           0.048142712 
 5.22          0.076888889 
 5.24          0.06866055 
 5.26          0.049504587 
 5.28          0.025124363 
 5.3           0.010891947 
 5.32          0.045201835 
 5.34          0.060017329 
 5.36         -0.0050428135 
 5.38         -0.078586137 
 5.4          -0.10975841 
 5.42         -0.12524975 
 5.44         -0.13516412 
 5.46         -0.15337003 
 5.48         -0.1743792 
 5.5          -0.20383282 
 5.52         -0.23579715 
 5.54         -0.26624465 
 5.56         -0.28626606 
 5.58         -0.27038124 
 5.6          -0.24334251 
 5.62         -0.2202314 
 5.64         -0.099707441 
 5.66          0.027194699 
 5.68          0.10481957 
 5.7           0.1790367 
 5.72          0.24551172 
 5.74          0.26689501 
 5.76          0.23207645 
 5.78          0.15856881 
 5.8           0.028148828 
 5.82         -0.039179409 
 5.84         -0.012181448 
 5.86          0.023494393 
 5.88          0.031916412 
 5.9           0.026996942 
 5.92          0.073373089 
 5.94          0.067945973 
 5.96         -0.044073394 
 5.98         -0.097540265 
 6            -0.10506728 
 6.02         -0.057922528 
 6.04         -0.027710499 
 6.06         -0.07879001 
 6.08         -0.13055046 
 6.1          -0.12456269 
 6.12         -0.041106014 
 6.14          0.054978593 
 6.16          0.11601733 
 6.18          0.13227523 
 6.2           0.12341896 
 6.22          0.11348624 
 6.24          0.122737 
 6.26          0.096119266 
 6.28          0.031204893 
 6.3          -0.015236493 
 6.32         -0.039877676 
 6.34          0.0029469929 
 6.36          0.055527013 
 6.38          0.067649337 
 6.4           0.091148828 
 6.42          0.092634047 
 6.44          0.060543323 
 6.46          0.027634047 
 6.48          0.035408767 
 6.5           0.055900102 
 6.52          0.023362895 
 6.54         -0.0088348624 
 6.56          0.0092782875 
 6.58          0.012831804 
 6.6          -0.033057085 
 6.62         -0.026001019 
 6.64          0.017094801 
 6.66          0.025217125 
 6.68          0.0084994903 
 6.7           0.0014393476 
 6.72         -0.0038797146 
 6.74         -0.036348624 
 6.76         -0.054211009 
 6.78         -0.061276249 
 6.8          -0.078217125 
 6.82         -0.07579103 
 6.84         -0.051533129 
 6.86         -0.042250765 
 6.88         -0.034066259 
 6.9          -0.011828746 
 6.92          0.017296636 
 6.94          0.024911315 
 6.96          0.021604485 
 6.98         -0.0066687054 
 7            -0.052251784 
 7.02         -0.046313965 
 7.04         -0.019982671 
 7.06         -0.00053109072 
 7.08          0.014692151 
 7.1           0.010185525 
 7.12          0.015236493 
 7.14          0.023310907 
 7.16          0.028416922 
 7.18          0.031071356 
 7.2           0.021174312 
 7.22         -0.0071060143 
 7.24         -0.050831804 
 7.26         -0.089057085 
 7.28         -0.11213048 
 7.3          -0.10628644 
 7.32         -0.074146789 
 7.34         -0.0030448522 
 7.36          0.0068990826 
 7.38         -0.013508665 
 7.4          -0.004382263 
 7.42         -0.015633028 
 7.44         -0.032664628 
 7.46         -0.015164118 
 7.48          0.039104995 
 7.5           0.067519878 
 7.52          0.077539246 
 7.54          0.071865443 
 7.56          0.042795107 
 7.58          0.018908257 
 7.6           0.020595311 
 7.62          0.025325178 
 7.64          0.0029551478 
 7.66         -0.030610601 
 7.68         -0.029084608 
 7.7          -0.002459735 
 7.72          0.01848318 
 7.74          0.05111213 
 7.76          0.06840265 
 7.78          0.067904179 
 7.8           0.072599388 
 7.82          0.081058104 
 7.84          0.072297655 
 7.86          0.033294597 
 7.88          0.01309684 
 7.9           0.019827727 
 7.92          0.03977472 
 7.94          0.04504893 
 7.96          0.033623853 
 7.98          0.012874618 
 8            -0.019223242 
 8.02         -0.043044852 
 8.04         -0.066118247 
 8.06         -0.076453619 
 8.08         -0.045476045 
 8.1          -0.021029562 
 8.12         -0.020425076 
 8.14         -0.022881753 
 8.16         -0.0089347604 
 8.18         -0.0039989806 
 8.2          -0.020236493 
 8.22         -0.02341998 
 8.24         -0.03629052 
 8.26         -0.018582059 
 8.28          0.025873598 
 8.3           0.045993884 
 8.32          0.065492355 
 8.34          0.072513761 
 8.36          0.050608563 
 8.38          0.018255861 
 8.4          -0.032171254 
 8.42         -0.061682977 
 8.44         -0.069202854 
 8.46         -0.077969419 
 8.48         -0.07503262 
 8.5          -0.075062181 
 8.52         -0.064491335 
 8.54         -0.049888889 
 8.56         -0.045255861 
 8.58         -0.049184506 
 8.6          -0.053813456 
 8.62         -0.049948012 
 8.64         -0.045743119 
 8.66         -0.042028542 
 8.68         -0.01183894 
 8.7           0.024454638 
 8.72          0.047020387 
 8.74          0.071303772 
 8.76          0.073249745 
 8.78          0.058646279 
 8.8           0.04783792 
 8.82          0.03245158 
 8.84         -0.0064454638 
 8.86         -0.02656473 
 8.88         -0.018337411 
 8.9          -0.0092232416 
 8.92         -0.0065382263 
 8.94         -0.0065005097 
 8.96         -0.011279307 
 8.98         -0.0055820591 
 9             0.027731906 
 9.02          0.050560652 
 9.04          0.061089704 
 9.06          0.065291539 
 9.08          0.059154944 
 9.1           0.047073394 
 9.12          0.039767584 
 9.14          0.044486239 
 9.16          0.039369011 
 9.18          0.027805301 
 9.2           0.026669725 
 9.22          4.077472E-05 
 9.24         -0.022797146 
 9.26         -0.022313965 
 9.28         -0.020186544 
 9.3          -0.0036340469 
 9.32          0.0013363914 
 9.34         -0.00016717635 
 9.36         -0.010862385 
 9.38         -0.0180316 
 9.4          -0.0063333333 
 9.42          0.011336391 
 9.44          0.021218145 
 9.46          0.0099347604 
 9.48          0.0051783894 
 9.5          -0.0053700306 
 9.52         -0.012711519 
 9.54          0.0023557594 
 9.56          0.018691131 
 9.58          0.036240571 
 9.6           0.046479103 
 9.62          0.050246687 
 9.64          0.049697248 
 9.66          0.033713558 
 9.68          0.0035606524 
 9.7          -0.034178389 
 9.72         -0.043199796 
 9.74         -0.022755352 
 9.76         -0.009675841 
 9.78         -0.020326198 
 9.8          -0.030153925 
 9.82         -0.036930683 
 9.84         -0.032138634 
 9.86         -0.015798165 
 9.88         -0.017057085 
 9.9          -0.023221203 
 9.92         -0.012637105 
 9.94          0.028348624 
 9.96          0.070918451 
 9.98          0.090728848 
 10            0.08250051 
 10.02         0.059643221 
 10.04         0.034252803 
 10.06         0.0051916412 
 10.08        -0.0222579 
 10.1         -0.051197757 
 10.12        -0.067254842 
 10.14        -0.076120285 
 10.16        -0.088874618 
 10.18        -0.10123242 
 10.2         -0.11047706 
 10.22        -0.10459429 
 10.24        -0.079816514 
 10.26        -0.041978593 
 10.28        -0.021187564 
 10.3         -0.017529052 
 10.32        -0.018691131 
 10.34        -0.0061651376 
 10.36         0.011043833 
 10.38         0.0035331295 
 10.4         -0.0097349643 
 10.42        -0.013963303 
 10.44         0.0061865443 
 10.46         0.037066259 
 10.48         0.054695209 
 10.5          0.062686035 
 10.52         0.066152905 
 10.54         0.058975535 
 10.56         0.025084608 
 10.58        -0.018988787 
 10.6         -0.023337411 
 10.62        -0.018648318 
 10.64        -0.02890316 
 10.66        -0.03041896 
 10.68        -0.032943935 
 10.7         -0.027452599 
 10.72        -0.01185423 
 10.74         0.0023486239 
 10.76         0.013749235 
 10.78         0.023901121 
 10.8          0.028880734 
 10.82         0.031017329 
 10.84         0.042961264 
 10.86         0.05533945 
 10.88         0.055782875 
 10.9          0.040360856 
 10.92         0.0017023445 
 10.94        -0.026200815 
 10.96        -0.033358818 
 10.98        -0.026329256 
 11            0.0012334353 
 11.02         0.017156983 
 11.04         0.022450561 
 11.06         0.025409786 
 11.08         0.033134557 
 11.1          0.031042813 
 11.12         0.016856269 
 11.14        -0.0026126402 
 11.16        -0.019417941 
 11.18        -0.028010194 
 11.2         -0.027235474 
 11.22        -0.021732926 
 11.24        -0.021082569 
 11.26        -0.022659531 
 11.28        -0.017309888 
 11.3         -0.016958206 
 11.32        -0.018716616 
 11.34        -0.0099765545 
 11.36        -0.015258919 
 11.38        -0.024743119 
 11.4         -0.016751274 
 11.42        -0.0043883792 
 11.44        -0.00060448522 
 11.46         0.0028012232 
 11.48         0.005637105 
 11.5          0.0064291539 
 11.52         0.005088685 
 11.54         0.0092803262 
 11.56         0.027087666 
 11.58         0.032275229 
 11.6          0.032514781 
 11.62         0.028925586 
 11.64        -0.0042680938 
 11.66        -0.021094801 
 11.68        -0.015341488 
 11.7         -0.021687054 
 11.72        -0.036913354 
 11.74        -0.042427115 
 11.76        -0.034691131 
 11.78        -0.014617737 
 11.8          0.010407747 
 11.82         0.029201835 
 11.84         0.039254842 
 11.86         0.051697248 
 11.88         0.05924159 
 11.9          0.068391437 
 11.92         0.079706422 
 11.94         0.074089704 
 11.96         0.051745158 
 11.98         0.022717635 
 12            0.0096625892 
 12.02        -0.0024383282 
 12.04        -0.024094801 
 12.06        -0.041459735 
 12.08        -0.036238532 
 12.1         -0.022285423 
 12.12        -0.029361876 
 12.14        -0.035137615 
 12.16        -0.022175331 
 12.18         0.00016819572 
 12.2          0.014617737 
 12.22         0.032082569 
 12.24         0.041938838 
 12.26         0.031496432 
 12.28         0.01227421 
 12.3         -0.0063211009 
 12.32        -0.017265036 
 12.34        -0.024142712 
 12.36        -0.022718654 
 12.38        -0.005088685 
 12.4          0.0099143731 
 12.42        -0.0023679918 
 12.44        -0.021454638 
 12.46        -0.02885525 
 12.48        -0.026078491 
 12.5         -0.022602446 
 12.52        -0.016285423 
 12.54        -0.011972477 
 12.56        -0.0079520897 
 12.58        -0.0062059123 
 12.6         -0.0059092762 
 12.62        -0.0018103976 
 12.64        -0.002675841 
 12.66        -0.006579001 
 12.68        -0.019200815 
 12.7         -0.034738022 
 12.72        -0.047756371 
 12.74        -0.051343527 
 12.76        -0.051394495 
 12.78        -0.03009684 
 12.8          0.013862385 
